start=new Date('2021-11-29T00:00:00.000Z').valueOf();
sats=[{"GP_ID":"190684065","ELEMENT_SET_NO":"999","REV_AT_EPOCH":"7245","REF_FRAME":"TEME","SITE":"AFETR","ARG_OF_PERICENTER":"79.3807","MEAN_MOTION_DDOT":"0.0000000000000","PERIAPSIS":"546.282","RCS_SIZE":"LARGE","BSTAR":"0.00005316600000","OBJECT_TYPE":"PAYLOAD","NORAD_CAT_ID":"46130","APOAPSIS":"548.187","MEAN_ELEMENT_THEORY":"SGP4","PERIOD":"95.593","CLASSIFICATION_TYPE":"U","OBJECT_ID":"2020-057P","MEAN_MOTION":"15.06393214","OBJECT_NAME":"STARLINK-1624","EPOCH":"2021-11-28T17:55:14.847168","INCLINATION":"53.0551","TIME_SYSTEM":"UTC","CENTER_NAME":"EARTH","EPHEMERIS_TYPE":"0","TLE_LINE2":"2 46130  53.0551  88.4530 0001375  79.3807 280.7336 15.06393214 72454","SEMIMAJOR_AXIS":"6925.369","COUNTRY_CODE":"US","ECCENTRICITY":"0.00013750","LAUNCH_DATE":"2020-08-18","MEAN_MOTION_DOT":"0.00000510","RA_OF_ASC_NODE":"88.4530","MEAN_ANOMALY":"280.7336","FILE":"3226391","TLE_LINE1":"1 46130U 20057P   21332.74669962  .00000510  00000-0  53166-4 0  9999","DECAY_DATE":null},{"NORAD_CAT_ID":"46131","OBJECT_TYPE":"PAYLOAD","MEAN_MOTION":"15.06396735","OBJECT_ID":"2020-057Q","CLASSIFICATION_TYPE":"U","PERIOD":"95.592","MEAN_ELEMENT_THEORY":"SGP4","APOAPSIS":"548.252","REV_AT_EPOCH":"7218","ELEMENT_SET_NO":"999","GP_ID":"190684317","BSTAR":"-0.00007683200000","RCS_SIZE":"LARGE","PERIAPSIS":"546.195","MEAN_MOTION_DDOT":"0.0000000000000","SITE":"AFETR","ARG_OF_PERICENTER":"87.0434","REF_FRAME":"TEME","MEAN_ANOMALY":"273.0725","RA_OF_ASC_NODE":"108.4029","MEAN_MOTION_DOT":"-0.00001426","LAUNCH_DATE":"2020-08-18","ECCENTRICITY":"0.00014850","COUNTRY_CODE":"US","DECAY_DATE":null,"TLE_LINE1":"1 46131U 20057Q   21332.75960739 -.00001426  00000-0 -76832-4 0  9991","FILE":"3226391","EPHEMERIS_TYPE":"0","CENTER_NAME":"EARTH","TIME_SYSTEM":"UTC","INCLINATION":"53.0556","EPOCH":"2021-11-28T18:13:50.078496","OBJECT_NAME":"STARLINK-1625","SEMIMAJOR_AXIS":"6925.359","TLE_LINE2":"2 46131  53.0556 108.4029 0001485  87.0434 273.0725 15.06396735 72188"},{"MEAN_ANOMALY":"273.9894","RA_OF_ASC_NODE":"128.2252","LAUNCH_DATE":"2020-08-18","MEAN_MOTION_DOT":"0.00001065","COUNTRY_CODE":"US","ECCENTRICITY":"0.00017080","DECAY_DATE":null,"TLE_LINE1":"1 46132U 20057R   21332.79833315  .00001065  00000-0  90424-4 0  9995","FILE":"3226391","EPHEMERIS_TYPE":"0","CENTER_NAME":"EARTH","TIME_SYSTEM":"UTC","INCLINATION":"53.0540","OBJECT_NAME":"STARLINK-1630","EPOCH":"2021-11-28T19:09:35.984160","SEMIMAJOR_AXIS":"6925.364","TLE_LINE2":"2 46132  53.0540 128.2252 0001708  86.1290 273.9894 15.06394845 71914","NORAD_CAT_ID":"46132","OBJECT_TYPE":"PAYLOAD","MEAN_MOTION":"15.06394845","OBJECT_ID":"2020-057R","CLASSIFICATION_TYPE":"U","MEAN_ELEMENT_THEORY":"SGP4","PERIOD":"95.592","APOAPSIS":"548.412","REV_AT_EPOCH":"7191","ELEMENT_SET_NO":"999","GP_ID":"190684566","BSTAR":"0.00009042400000","RCS_SIZE":"LARGE","PERIAPSIS":"546.047","MEAN_MOTION_DDOT":"0.0000000000000","SITE":"AFETR","ARG_OF_PERICENTER":"86.1290","REF_FRAME":"TEME"},{"REF_FRAME":"TEME","ARG_OF_PERICENTER":"88.2121","SITE":"AFETR","MEAN_MOTION_DDOT":"0.0000000000000","PERIAPSIS":"546.410","RCS_SIZE":"LARGE","BSTAR":"0.00012040000000","GP_ID":"190683316","ELEMENT_SET_NO":"999","REV_AT_EPOCH":"7245","APOAPSIS":"547.999","PERIOD":"95.592","MEAN_ELEMENT_THEORY":"SGP4","CLASSIFICATION_TYPE":"U","OBJECT_ID":"2020-057S","MEAN_MOTION":"15.06402878","OBJECT_TYPE":"PAYLOAD","NORAD_CAT_ID":"46133","TLE_LINE2":"2 46133  53.0538  88.5197 0001147  88.2121 271.9000 15.06402878 72454","SEMIMAJOR_AXIS":"6925.340","OBJECT_NAME":"STARLINK-1637","EPOCH":"2021-11-28T17:34:00.671808","INCLINATION":"53.0538","TIME_SYSTEM":"UTC","CENTER_NAME":"EARTH","EPHEMERIS_TYPE":"0","FILE":"3226391","TLE_LINE1":"1 46133U 20057S   21332.73195222  .00001513  00000-0  12040-3 0  9993","DECAY_DATE":null,"COUNTRY_CODE":"US","ECCENTRICITY":"0.00011470","MEAN_MOTION_DOT":"0.00001513","LAUNCH_DATE":"2020-08-18","RA_OF_ASC_NODE":"88.5197","MEAN_ANOMALY":"271.9000"},{"APOAPSIS":"548.120","PERIOD":"95.592","MEAN_ELEMENT_THEORY":"SGP4","CLASSIFICATION_TYPE":"U","OBJECT_ID":"2020-057T","MEAN_MOTION":"15.06401293","OBJECT_TYPE":"PAYLOAD","NORAD_CAT_ID":"46134","REF_FRAME":"TEME","ARG_OF_PERICENTER":"85.8019","SITE":"AFETR","MEAN_MOTION_DDOT":"0.0000000000000","PERIAPSIS":"546.299","RCS_SIZE":"LARGE","BSTAR":"0.00009230700000","GP_ID":"190657029","ELEMENT_SET_NO":"999","REV_AT_EPOCH":"7118","FILE":"3226217","TLE_LINE1":"1 46134U 20057T   21332.60294208  .00001094  00000-0  92307-4 0  9993","DECAY_DATE":null,"COUNTRY_CODE":"US","ECCENTRICITY":"0.00013150","MEAN_MOTION_DOT":"0.00001094","LAUNCH_DATE":"2020-08-18","RA_OF_ASC_NODE":"89.1019","MEAN_ANOMALY":"274.3120","TLE_LINE2":"2 46134  53.0538  89.1019 0001315  85.8019 274.3120 15.06401293 71180","SEMIMAJOR_AXIS":"6925.345","EPOCH":"2021-11-28T14:28:14.195712","OBJECT_NAME":"STARLINK-1638","INCLINATION":"53.0538","TIME_SYSTEM":"UTC","CENTER_NAME":"EARTH","EPHEMERIS_TYPE":"0"},{"RA_OF_ASC_NODE":"88.1373","MEAN_ANOMALY":"285.5170","MEAN_MOTION_DOT":"-0.00000276","LAUNCH_DATE":"2020-08-18","ECCENTRICITY":"0.00012440","COUNTRY_CODE":"US","DECAY_DATE":null,"TLE_LINE1":"1 46135U 20057U   21332.81673522 -.00000276  00000-0  34636-6 0  9992","FILE":"3226391","EPHEMERIS_TYPE":"0","CENTER_NAME":"EARTH","INCLINATION":"53.0548","TIME_SYSTEM":"UTC","OBJECT_NAME":"STARLINK-1639","EPOCH":"2021-11-28T19:36:05.923008","SEMIMAJOR_AXIS":"6925.382","TLE_LINE2":"2 46135  53.0548  88.1373 0001244  74.5956 285.5170 15.06388975 71214","NORAD_CAT_ID":"46135","OBJECT_TYPE":"PAYLOAD","OBJECT_ID":"2020-057U","MEAN_MOTION":"15.06388975","CLASSIFICATION_TYPE":"U","PERIOD":"95.593","MEAN_ELEMENT_THEORY":"SGP4","APOAPSIS":"548.109","REV_AT_EPOCH":"7121","GP_ID":"190684817","ELEMENT_SET_NO":"999","BSTAR":"0.00000034636000","RCS_SIZE":"LARGE","PERIAPSIS":"546.386","REF_FRAME":"TEME","SITE":"AFETR","ARG_OF_PERICENTER":"74.5956","MEAN_MOTION_DDOT":"0.0000000000000"},{"SEMIMAJOR_AXIS":"6925.313","TLE_LINE2":"2 46136  53.0534 118.5206 0001966  90.1207 270.0007 15.06411598 70784","TIME_SYSTEM":"UTC","INCLINATION":"53.0534","EPOCH":"2021-11-28T17:35:21.770304","OBJECT_NAME":"STARLINK-1643","EPHEMERIS_TYPE":"0","CENTER_NAME":"EARTH","FILE":"3226391","DECAY_DATE":null,"TLE_LINE1":"1 46136U 20057V   21332.73289086  .00001377  00000-0  11129-3 0  9993","MEAN_MOTION_DOT":"0.00001377","LAUNCH_DATE":"2020-08-18","COUNTRY_CODE":"US","ECCENTRICITY":"0.00019660","MEAN_ANOMALY":"270.0007","RA_OF_ASC_NODE":"118.5206","PERIAPSIS":"545.816","ARG_OF_PERICENTER":"90.1207","SITE":"AFETR","MEAN_MOTION_DDOT":"0.0000000000000","REF_FRAME":"TEME","BSTAR":"0.00011129000000","RCS_SIZE":"LARGE","REV_AT_EPOCH":"7078","ELEMENT_SET_NO":"999","GP_ID":"190685066","MEAN_ELEMENT_THEORY":"SGP4","PERIOD":"95.591","APOAPSIS":"548.540","MEAN_MOTION":"15.06411598","OBJECT_ID":"2020-057V","CLASSIFICATION_TYPE":"U","OBJECT_TYPE":"PAYLOAD","NORAD_CAT_ID":"46136"},{"TLE_LINE2":"2 46137  53.0548 108.1254 0001371  86.1334 273.9812 15.06402489 70936","SEMIMAJOR_AXIS":"6925.341","EPOCH":"2021-11-28T19:38:45.460608","OBJECT_NAME":"STARLINK-1586","INCLINATION":"53.0548","TIME_SYSTEM":"UTC","CENTER_NAME":"EARTH","EPHEMERIS_TYPE":"0","FILE":"3226391","TLE_LINE1":"1 46137U 20057W   21332.81858172  .00000402  00000-0  45899-4 0  9991","DECAY_DATE":null,"COUNTRY_CODE":"US","ECCENTRICITY":"0.00013710","MEAN_MOTION_DOT":"0.00000402","LAUNCH_DATE":"2020-08-18","RA_OF_ASC_NODE":"108.1254","MEAN_ANOMALY":"273.9812","REF_FRAME":"TEME","SITE":"AFETR","ARG_OF_PERICENTER":"86.1334","MEAN_MOTION_DDOT":"0.0000000000000","PERIAPSIS":"546.256","RCS_SIZE":"LARGE","BSTAR":"0.00004589900000","GP_ID":"190683816","ELEMENT_SET_NO":"999","REV_AT_EPOCH":"7093","APOAPSIS":"548.155","PERIOD":"95.592","MEAN_ELEMENT_THEORY":"SGP4","CLASSIFICATION_TYPE":"U","OBJECT_ID":"2020-057W","MEAN_MOTION":"15.06402489","OBJECT_TYPE":"PAYLOAD","NORAD_CAT_ID":"46137"},{"FILE":"3226391","DECAY_DATE":null,"TLE_LINE1":"1 46138U 20057X   21332.81675039  .00000923  00000-0  80829-4 0  9991","LAUNCH_DATE":"2020-08-18","MEAN_MOTION_DOT":"0.00000923","COUNTRY_CODE":"US","ECCENTRICITY":"0.00018680","MEAN_ANOMALY":"269.9274","RA_OF_ASC_NODE":"128.1353","SEMIMAJOR_AXIS":"6925.332","TLE_LINE2":"2 46138  53.0533 128.1353 0001868  90.1929 269.9274 15.06405317 70658","TIME_SYSTEM":"UTC","INCLINATION":"53.0533","OBJECT_NAME":"STARLINK-1590","EPOCH":"2021-11-28T19:36:07.233696","EPHEMERIS_TYPE":"0","CENTER_NAME":"EARTH","PERIOD":"95.592","MEAN_ELEMENT_THEORY":"SGP4","APOAPSIS":"548.491","MEAN_MOTION":"15.06405317","OBJECT_ID":"2020-057X","CLASSIFICATION_TYPE":"U","OBJECT_TYPE":"PAYLOAD","NORAD_CAT_ID":"46138","PERIAPSIS":"545.904","ARG_OF_PERICENTER":"90.1929","SITE":"AFETR","MEAN_MOTION_DDOT":"0.0000000000000","REF_FRAME":"TEME","BSTAR":"0.00008082900000","RCS_SIZE":"LARGE","REV_AT_EPOCH":"7065","ELEMENT_SET_NO":"999","GP_ID":"190684066"},{"OBJECT_NAME":"STARLINK-1594","EPOCH":"2021-11-28T17:02:10.313376","TIME_SYSTEM":"UTC","INCLINATION":"53.0541","CENTER_NAME":"EARTH","EPHEMERIS_TYPE":"0","TLE_LINE2":"2 46140  53.0541  88.6227 0001291  82.5596 277.5540 15.06401160 72469","SEMIMAJOR_AXIS":"6925.345","COUNTRY_CODE":"US","ECCENTRICITY":"0.00012910","LAUNCH_DATE":"2020-08-18","MEAN_MOTION_DOT":"0.00000428","MEAN_ANOMALY":"277.5540","RA_OF_ASC_NODE":"88.6227","FILE":"3226391","TLE_LINE1":"1 46140U 20057Z   21332.70984159  .00000428  00000-0  47637-4 0  9998","DECAY_DATE":null,"ELEMENT_SET_NO":"999","GP_ID":"190684318","REV_AT_EPOCH":"7246","SITE":"AFETR","ARG_OF_PERICENTER":"82.5596","MEAN_MOTION_DDOT":"0.0000000000000","REF_FRAME":"TEME","PERIAPSIS":"546.316","RCS_SIZE":"LARGE","BSTAR":"0.00004763700000","OBJECT_TYPE":"PAYLOAD","NORAD_CAT_ID":"46140","APOAPSIS":"548.104","PERIOD":"95.592","MEAN_ELEMENT_THEORY":"SGP4","CLASSIFICATION_TYPE":"U","MEAN_MOTION":"15.06401160","OBJECT_ID":"2020-057Z"}];
